[{"OBJECT_NAME":"JILIN-1 GAOFEN 03D50","OBJECT_ID":"2022-167J","EPOCH":"2026-03-09T22:35:59.947584","MEAN_MOTION":15.32279726,"ECCENTRICITY":0.00065764,"INCLINATION":97.6731,"RA_OF_ASC_NODE":232.9458,"ARG_OF_PERICENTER":101.1473,"MEAN_ANOMALY":259.0507,"EPHEMERIS_TYPE":0,"CLASSIFICATION_TYPE":"U","NORAD_CAT_ID":54690,"ELEMENT_SET_NO":999,"REV_AT_EPOCH":18014,"BSTAR":0.00049467973,"MEAN_MOTION_DOT":0.00015359,"MEAN_MOTION_DDOT":0},{"OBJECT_NAME":"STARLINK-32469","OBJECT_ID":"2024-196Q","EPOCH":"2026-03-09T09:20:49.942752","MEAN_MOTION":15.30192485,"ECCENTRICITY":0.0001054,"INCLINATION":53.1601,"RA_OF_ASC_NODE":102.5175,"ARG_OF_PERICENTER":81.5233,"MEAN_ANOMALY":278.5887,"EPHEMERIS_TYPE":0,"CLASSIFICATION_TYPE":"U","NORAD_CAT_ID":61721,"ELEMENT_SET_NO":999,"REV_AT_EPOCH":7711,"BSTAR":3.1790917e-5,"MEAN_MOTION_DOT":5.82e-6,"MEAN_MOTION_DDOT":0}]
